{"type": "FeatureCollection", "features": [ {"type": "Feature", "properties": {"norad_id": 66885, "name": "STARLINK-35954", "group": "last-30-days", "lat": -52.84377554368424, "lon": -28.546611965903832, "alt_km": 300.6336227974816, "timestamp": "2025-12-13T13:34:33.866280+00:00", "meta": {"OBJECT_NAME": "STARLINK-35954", "OBJECT_ID": "2025-283H", "EPOCH": "2025-12-12T20:00:01.999872", "MEAN_MOTION": 15.94406474, "ECCENTRICITY": 0.00011379, "INCLINATION": 53.1546, "RA_OF_ASC_NODE": 73.5, "ARG_OF_PERICENTER": 53.6867, "MEAN_ANOMALY": 327.8441, "EPHEMERIS_TYPE": 0, "CLASSIFICATION_TYPE": "U", "NORAD_CAT_ID": 66885, "ELEMENT_SET_NO": 999, "REV_AT_EPOCH": 244, "BSTAR": -0.0033284986, "MEAN_MOTION_DOT": -0.01281516, "MEAN_MOTION_DDOT": 0.0004916383}, "tle": {"line1": "1 66885U 25283H   25346.83335648 -.01281516  49164-3 -33285-2 0  9999", "line2": "2 66885  53.1546  73.5000 0001137  53.6867 327.8441 15.94406474  2444"}}, "geometry": {"type": "Point", "coordinates": [-28.546611965903832, -52.84377554368424]}}, {"type": "Feature", "properties": {"norad_id": 66886, "name": "STARLINK-35900", "group": "last-30-days", "lat": -53.134287510159474, "lon": -20.186712907076448, "alt_km": 300.23173615349606, "timestamp": "2025-12-13T13:34:33.866290+00:00", "meta": {"OBJECT_NAME": "STARLINK-35900", "OBJECT_ID": "2025-283J", "EPOCH": "2025-12-12T20:00:01.999872", "MEAN_MOTION": 15.94540765, "ECCENTRICITY": 0.00010601, "INCLINATION": 53.1547, "RA_OF_ASC_NODE": 73.4901, "ARG_OF_PERICENTER": 49.4487, "MEAN_ANOMALY": 336.8084, "EPHEMERIS_TYPE": 0, "CLASSIFICATION_TYPE": "U", "NORAD_CAT_ID": 66886, "ELEMENT_SET_NO": 999, "REV_AT_EPOCH": 244, "BSTAR": -0.0033408912, "MEAN_MOTION_DOT": -0.01295371, "MEAN_MOTION_DDOT": 0.00050203525}, "tle": {"line1": "1 66886U 25283J   25346.83335648 -.01295371  50204-3 -33409-2 0  9999", "line2": "2 66886  53.1547  73.4901 0001060  49.4487 336.8084 15.94540765  2446"}}, "geometry": {"type": "Point", "coordinates": [-20.186712907076448, -53.134287510159474]}}, {"type": "Feature", "properties": {"norad_id": 66887, "name": "STARLINK-35925", "group": "last-30-days", "lat": -53.078839301107465, "lon": -16.614712686297118, "alt_km": 300.1130946682997, "timestamp": "2025-12-13T13:34:33.866299+00:00", "meta": {"OBJECT_NAME": "STARLINK-35925", "OBJECT_ID": "2025-283K", "EPOCH": "2025-12-12T20:00:01.999872", "MEAN_MOTION": 15.94600947, "ECCENTRICITY": 0.00010591, "INCLINATION": 53.1548, "RA_OF_ASC_NODE": 73.4861, "ARG_OF_PERICENTER": 51.8657, "MEAN_ANOMALY": 336.4091, "EPHEMERIS_TYPE": 0, "CLASSIFICATION_TYPE": "U", "NORAD_CAT_ID": 66887, "ELEMENT_SET_NO": 999, "REV_AT_EPOCH": 244, "BSTAR": -0.0033653694, "MEAN_MOTION_DOT": -0.01308905, "MEAN_MOTION_DDOT": 0.00051193983}, "tle": {"line1": "1 66887U 25283K   25346.83335648 -.01308905  51194-3 -33654-2 0  9999", "line2": "2 66887  53.1548  73.4861 0001059  51.8657 336.4091 15.94600947  2440"}}, "geometry": {"type": "Point", "coordinates": [-16.614712686297118, -53.078839301107465]}}, {"type": "Feature", "properties": {"norad_id": 66888, "name": "STARLINK-35919", "group": "last-30-days", "lat": -52.91642020722476, "lon": -13.061017067320918, "alt_km": 299.9649753231288, "timestamp": "2025-12-13T13:34:33.866308+00:00", "meta": {"OBJECT_NAME": "STARLINK-35919", "OBJECT_ID": "2025-283L", "EPOCH": "2025-12-12T20:00:01.999872", "MEAN_MOTION": 15.94658835, "ECCENTRICITY": 0.00010517, "INCLINATION": 53.1547, "RA_OF_ASC_NODE": 73.4817, "ARG_OF_PERICENTER": 57.4889, "MEAN_ANOMALY": 332.7895, "EPHEMERIS_TYPE": 0, "CLASSIFICATION_TYPE": "U", "NORAD_CAT_ID": 66888, "ELEMENT_SET_NO": 999, "REV_AT_EPOCH": 244, "BSTAR": -0.003362331, "MEAN_MOTION_DOT": -0.01311745, "MEAN_MOTION_DDOT": 0.0005142642}, "tle": {"line1": "1 66888U 25283L   25346.83335648 -.01311745  51426-3 -33623-2 0  9990", "line2": "2 66888  53.1547  73.4817 0001051  57.4889 332.7895 15.94658835  2442"}}, "geometry": {"type": "Point", "coordinates": [-13.061017067320918, -52.91642020722476]}}, {"type": "Feature", "properties": {"norad_id": 66889, "name": "STARLINK-35852", "group": "last-30-days", "lat": -52.59615601156886, "lon": -8.987610332142744, "alt_km": 299.8079716298289, "timestamp": "2025-12-13T13:34:33.866318+00:00", "meta": {"OBJECT_NAME": "STARLINK-35852", "OBJECT_ID": "2025-283M", "EPOCH": "2025-12-12T20:00:01.999872", "MEAN_MOTION": 15.94727288, "ECCENTRICITY": 0.00011082, "INCLINATION": 53.1542, "RA_OF_ASC_NODE": 73.4767, "ARG_OF_PERICENTER": 54.95, "MEAN_ANOMALY": 337.6588, "EPHEMERIS_TYPE": 0, "CLASSIFICATION_TYPE": "U", "NORAD_CAT_ID": 66889, "ELEMENT_SET_NO": 999, "REV_AT_EPOCH": 244, "BSTAR": -0.0033727999, "MEAN_MOTION_DOT": -0.01320565, "MEAN_MOTION_DDOT": 0.00052093975}, "tle": {"line1": "1 66889U 25283M   25346.83335648 -.01320565  52094-3 -33728-2 0  9999", "line2": "2 66889  53.1542  73.4767 0001108  54.9500 337.6588 15.94727288  2449"}}, "geometry": {"type": "Point", "coordinates": [-8.987610332142744, -52.59615601156886]}}, {"type": "Feature", "properties": {"norad_id": 66890, "name": "STARLINK-35885", "group": "last-30-days", "lat": -52.165652294840044, "lon": -5.188764383919006, "alt_km": 299.5991331159139, "timestamp": "2025-12-13T13:34:33.866327+00:00", "meta": {"OBJECT_NAME": "STARLINK-35885", "OBJECT_ID": "2025-283N", "EPOCH": "2025-12-12T20:00:01.999872", "MEAN_MOTION": 15.9479, "ECCENTRICITY": 0.00011644, "INCLINATION": 53.1545, "RA_OF_ASC_NODE": 73.4723, "ARG_OF_PERICENTER": 51.6315, "MEAN_ANOMALY": 343.1708, "EPHEMERIS_TYPE": 0, "CLASSIFICATION_TYPE": "U", "NORAD_CAT_ID": 66890, "ELEMENT_SET_NO": 999, "REV_AT_EPOCH": 244, "BSTAR": -0.0033501166, "MEAN_MOTION_DOT": -0.01316161, "MEAN_MOTION_DDOT": 0.00051810491}, "tle": {"line1": "1 66890U 25283N   25346.83335648 -.01316161  51810-3 -33501-2 0  9992", "line2": "2 66890  53.1545  73.4723 0001164  51.6315 343.1708 15.94790000  2444"}}, "geometry": {"type": "Point", "coordinates": [-5.188764383919006, -52.165652294840044]}}, {"type": "Feature", "properties": {"norad_id": 66891, "name": "STARLINK-35855", "group": "last-30-days", "lat": -51.59963904974895, "lon": -1.3802268338920474, "alt_km": 299.3942454427779, "timestamp": "2025-12-13T13:34:33.866338+00:00", "meta": {"OBJECT_NAME": "STARLINK-35855", "OBJECT_ID": "2025-283P", "EPOCH": "2025-12-12T20:00:01.999872", "MEAN_MOTION": 15.94848878, "ECCENTRICITY": 0.0001142, "INCLINATION": 53.1545, "RA_OF_ASC_NODE": 73.4676, "ARG_OF_PERICENTER": 51.9351, "MEAN_ANOMALY": 345.1389, "EPHEMERIS_TYPE": 0, "CLASSIFICATION_TYPE": "U", "NORAD_CAT_ID": 66891, "ELEMENT_SET_NO": 999, "REV_AT_EPOCH": 244, "BSTAR": -0.0033415833, "MEAN_MOTION_DOT": -0.01316948, "MEAN_MOTION_DDOT": 0.00051897677}, "tle": {"line1": "1 66891U 25283P   25346.83335648 -.01316948  51898-3 -33416-2 0  9997", "line2": "2 66891  53.1545  73.4676 0001142  51.9351 345.1389 15.94848878  2445"}}, "geometry": {"type": "Point", "coordinates": [-1.3802268338920474, -51.59963904974895]}}, {"type": "Feature", "properties": {"norad_id": 66892, "name": "STARLINK-35883", "group": "last-30-days", "lat": -50.94707956991411, "lon": 2.1570894941792567, "alt_km": 299.2366411854591, "timestamp": "2025-12-13T13:34:33.866347+00:00", "meta": {"OBJECT_NAME": "STARLINK-35883", "OBJECT_ID": "2025-283Q", "EPOCH": "2025-12-12T20:00:01.999872", "MEAN_MOTION": 15.94927975, "ECCENTRICITY": 0.00011105, "INCLINATION": 53.1543, "RA_OF_ASC_NODE": 73.4628, "ARG_OF_PERICENTER": 50.702, "MEAN_ANOMALY": 348.5355, "EPHEMERIS_TYPE": 0, "CLASSIFICATION_TYPE": "U", "NORAD_CAT_ID": 66892, "ELEMENT_SET_NO": 999, "REV_AT_EPOCH": 238, "BSTAR": -0.003407852, "MEAN_MOTION_DOT": -0.01348387, "MEAN_MOTION_DDOT": 0.00054221383}, "tle": {"line1": "1 66892U 25283Q   25346.83335648 -.01348387  54221-3 -34079-2 0  9999", "line2": "2 66892  53.1543  73.4628 0001110  50.7020 348.5355 15.94927975  2385"}}, "geometry": {"type": "Point", "coordinates": [2.1570894941792567, -50.94707956991411]}}, {"type": "Feature", "properties": {"norad_id": 66893, "name": "STARLINK-36033", "group": "last-30-days", "lat": -50.21925240156122, "lon": 5.469192373828691, "alt_km": 299.09710860695304, "timestamp": "2025-12-13T13:34:33.866355+00:00", "meta": {"OBJECT_NAME": "STARLINK-36033", "OBJECT_ID": "2025-283R", "EPOCH": "2025-12-12T20:00:01.999872", "MEAN_MOTION": 15.9499162, "ECCENTRICITY": 0.00011756, "INCLINATION": 53.1543, "RA_OF_ASC_NODE": 73.4586, "ARG_OF_PERICENTER": 53.1681, "MEAN_ANOMALY": 348.1485, "EPHEMERIS_TYPE": 0, "CLASSIFICATION_TYPE": "U", "NORAD_CAT_ID": 66893, "ELEMENT_SET_NO": 999, "REV_AT_EPOCH": 244, "BSTAR": -0.0034161966, "MEAN_MOTION_DOT": -0.01356232, "MEAN_MOTION_DDOT": 0.00054833219}, "tle": {"line1": "1 66893U 25283R   25346.83335648 -.01356232  54833-3 -34162-2 0  9990", "line2": "2 66893  53.1543  73.4586 0001175  53.1681 348.1485 15.94991620  2445"}}, "geometry": {"type": "Point", "coordinates": [5.469192373828691, -50.21925240156122]}}, {"type": "Feature", "properties": {"norad_id": 66894, "name": "STARLINK-35718", "group": "last-30-days", "lat": -49.16597039224519, "lon": 9.515472168941322, "alt_km": 298.7241584946205, "timestamp": "2025-12-13T13:34:33.866366+00:00", "meta": {"OBJECT_NAME": "STARLINK-35718", "OBJECT_ID": "2025-283S", "EPOCH": "2025-12-12T20:00:01.999872", "MEAN_MOTION": 15.95056747, "ECCENTRICITY": 0.00010714, "INCLINATION": 53.1545, "RA_OF_ASC_NODE": 73.4533, "ARG_OF_PERICENTER": 49.3068, "MEAN_ANOMALY": 354.639, "EPHEMERIS_TYPE": 0, "CLASSIFICATION_TYPE": "U", "NORAD_CAT_ID": 66894, "ELEMENT_SET_NO": 999, "REV_AT_EPOCH": 244, "BSTAR": -0.0033647927, "MEAN_MOTION_DOT": -0.01340684, "MEAN_MOTION_DDOT": 0.00053727636}, "tle": {"line1": "1 66894U 25283S   25346.83335648 -.01340684  53728-3 -33648-2 0  9995", "line2": "2 66894  53.1545  73.4533 0001071  49.3068 354.6390 15.95056747  2441"}}, "geometry": {"type": "Point", "coordinates": [9.515472168941322, -49.16597039224519]}}]}